ONEWEB-0027             
1 45432U 20020J   24025.43296259  .00000053  00000+0  10293-3 0  9990
2 45432  87.9222 179.6101 0001216  81.4252 278.7018 13.17652373191290
ONEWEB-0064             
1 45433U 20020K   24024.97686820  .00000095  00000+0  23232-3 0  9999
2 45433  87.8976 194.8257 0001521  83.3788 276.7513 13.11419135188117
ONEWEB-0018             
1 45434U 20020L   24024.93303792  .00000238  00000+0  63538-3 0  9992
2 45434  87.8971 194.8285 0001537  97.2044 262.9259 13.11414712188042
ONEWEB-0083             
1 45435U 20020M   24024.92168188  .00000577  00000+0  15912-2 0  9998
2 45435  87.8973 194.8104 0001423  93.3857 266.7434 13.11417687188083
ONEWEB-0095             
1 45436U 20020N   24024.91369845  .00000574  00000+0  15842-2 0  9990
2 45436  87.8971 194.8506 0001052  95.2103 264.9145 13.11419291188083
ONEWEB-0092             
1 45437U 20020P   24024.95741185 -.00000516  00000+0 -14913-2 0  9992
2 45437  87.8973 194.8219 0001101  99.6772 260.4480 13.11416424188204
ONEWEB-0085             
1 45438U 20020Q   24025.44926394  .00000508  00000+0  13961-2 0  9996
2 45438  87.8975 194.7288 0001663  93.2469 266.8850 13.11417735188160
ONEWEB-0096             
1 45439U 20020R   24025.45739417  .00000552  00000+0  15226-2 0  9991
2 45439  87.8972 194.6999 0001694 101.6973 258.4345 13.11417334188154
